{"type": "FeatureCollection", "features": [ {"type": "Feature", "properties": {"norad_id": 30385, "name": "FENGYUN 1C DEB", "group": "fengyun-1c-debris", "lat": -15.200044328591732, "lon": 1.0235266394795088, "alt_km": 689.8835200717813, "timestamp": "2025-12-04T07:39:36.411562+00:00", "meta": {"OBJECT_NAME": "FENGYUN 1C DEB", "OBJECT_ID": "1999-025ACY", "EPOCH": "2025-12-03T08:26:23.152704", "MEAN_MOTION": 14.38754543, "ECCENTRICITY": 0.0124969, "INCLINATION": 99.0826, "RA_OF_ASC_NODE": 357.5089, "ARG_OF_PERICENTER": 317.3399, "MEAN_ANOMALY": 58.2448, "EPHEMERIS_TYPE": 0, "CLASSIFICATION_TYPE": "U", "NORAD_CAT_ID": 30385, "ELEMENT_SET_NO": 999, "REV_AT_EPOCH": 98634, "BSTAR": 0.00045072, "MEAN_MOTION_DOT": 1.462e-05, "MEAN_MOTION_DDOT": 0}, "tle": {"line1": "1 30385U 99025ACY 25337.35165686  .00001462  00000+0  45072-3 0  9997", "line2": "2 30385  99.0826 357.5089 0124969 317.3399  58.2448 14.38754543986343"}}, "geometry": {"type": "Point", "coordinates": [1.0235266394795088, -15.200044328591732]}}, {"type": "Feature", "properties": {"norad_id": 30386, "name": "FENGYUN 1C DEB", "group": "fengyun-1c-debris", "lat": 63.40928668690686, "lon": -143.20280904433747, "alt_km": 1127.764234531477, "timestamp": "2025-12-04T07:39:36.411571+00:00", "meta": {"OBJECT_NAME": "FENGYUN 1C DEB", "OBJECT_ID": "1999-025ACZ", "EPOCH": "2025-12-03T03:47:05.224704", "MEAN_MOTION": 13.55532003, "ECCENTRICITY": 0.03034457, "INCLINATION": 98.6905, "RA_OF_ASC_NODE": 233.5629, "ARG_OF_PERICENTER": 180.7674, "MEAN_ANOMALY": 342.396, "EPHEMERIS_TYPE": 0, "CLASSIFICATION_TYPE": "U", "NORAD_CAT_ID": 30386, "ELEMENT_SET_NO": 999, "REV_AT_EPOCH": 92699, "BSTAR": 0.0016131689, "MEAN_MOTION_DOT": 1.469e-05, "MEAN_MOTION_DDOT": 0}, "tle": {"line1": "1 30386U 99025ACZ 25337.15769936  .00001469  00000+0  16132-2 0  9995", "line2": "2 30386  98.6905 233.5629 0303445 180.7674 342.3960 13.55532003926990"}}, "geometry": {"type": "Point", "coordinates": [-143.20280904433747, 63.40928668690686]}}, {"type": "Feature", "properties": {"norad_id": 30387, "name": "FENGYUN 1C DEB", "group": "fengyun-1c-debris", "lat": 12.36685255054529, "lon": 175.55367488116218, "alt_km": 843.0496943596154, "timestamp": "2025-12-04T07:39:36.411580+00:00", "meta": {"OBJECT_NAME": "FENGYUN 1C DEB", "OBJECT_ID": "1999-025ADA", "EPOCH": "2025-12-03T12:54:51.143616", "MEAN_MOTION": 14.15037786, "ECCENTRICITY": 0.0001174, "INCLINATION": 98.6571, "RA_OF_ASC_NODE": 352.8816, "ARG_OF_PERICENTER": 100.1454, "MEAN_ANOMALY": 50.5263, "EPHEMERIS_TYPE": 0, "CLASSIFICATION_TYPE": "U", "NORAD_CAT_ID": 30387, "ELEMENT_SET_NO": 999, "REV_AT_EPOCH": 97194, "BSTAR": 0.00037543966, "MEAN_MOTION_DOT": 6.85e-06, "MEAN_MOTION_DDOT": 0}, "tle": {"line1": "1 30387U 99025ADA 25337.53809194  .00000685  00000+0  37544-3 0  9999", "line2": "2 30387  98.6571 352.8816 0001174 100.1454  50.5263 14.15037786971943"}}, "geometry": {"type": "Point", "coordinates": [175.55367488116218, 12.36685255054529]}}, {"type": "Feature", "properties": {"norad_id": 30388, "name": "FENGYUN 1C DEB", "group": "fengyun-1c-debris", "lat": -61.248427123633896, "lon": 15.230986788234752, "alt_km": 970.4646139026008, "timestamp": "2025-12-04T07:39:36.411589+00:00", "meta": {"OBJECT_NAME": "FENGYUN 1C DEB", "OBJECT_ID": "1999-025ADB", "EPOCH": "2025-12-03T18:40:47.197920", "MEAN_MOTION": 14.1973458, "ECCENTRICITY": 0.02223882, "INCLINATION": 98.6, "RA_OF_ASC_NODE": 358.694, "ARG_OF_PERICENTER": 88.6237, "MEAN_ANOMALY": 327.5549, "EPHEMERIS_TYPE": 0, "CLASSIFICATION_TYPE": "U", "NORAD_CAT_ID": 30388, "ELEMENT_SET_NO": 999, "REV_AT_EPOCH": 97305, "BSTAR": 0.00059111574, "MEAN_MOTION_DOT": 1.559e-05, "MEAN_MOTION_DDOT": 0}, "tle": {"line1": "1 30388U 99025ADB 25337.77832405  .00001559  00000+0  59112-3 0  9993", "line2": "2 30388  98.6000 358.6940 0222388  88.6237 327.5549 14.19734580973052"}}, "geometry": {"type": "Point", "coordinates": [15.230986788234752, -61.248427123633896]}}, {"type": "Feature", "properties": {"norad_id": 30389, "name": "FENGYUN 1C DEB", "group": "fengyun-1c-debris", "lat": -28.231687234940033, "lon": 64.02755636414592, "alt_km": 751.3327205453716, "timestamp": "2025-12-04T07:39:36.411598+00:00", "meta": {"OBJECT_NAME": "FENGYUN 1C DEB", "OBJECT_ID": "1999-025ADC", "EPOCH": "2025-12-03T19:02:48.927840", "MEAN_MOTION": 14.43818606, "ECCENTRICITY": 0.00136887, "INCLINATION": 98.8393, "RA_OF_ASC_NODE": 58.6894, "ARG_OF_PERICENTER": 244.9036, "MEAN_ANOMALY": 236.3281, "EPHEMERIS_TYPE": 0, "CLASSIFICATION_TYPE": "U", "NORAD_CAT_ID": 30389, "ELEMENT_SET_NO": 999, "REV_AT_EPOCH": 97657, "BSTAR": 0.0036849609, "MEAN_MOTION_DOT": 0.00012537, "MEAN_MOTION_DDOT": 0}, "tle": {"line1": "1 30389U 99025ADC 25337.79362185  .00012537  00000+0  36850-2 0  9990", "line2": "2 30389  98.8393  58.6894 0013688 244.9036 236.3281 14.43818606976579"}}, "geometry": {"type": "Point", "coordinates": [64.02755636414592, -28.231687234940033]}}, {"type": "Feature", "properties": {"norad_id": 30390, "name": "FENGYUN 1C DEB", "group": "fengyun-1c-debris", "lat": -65.29248845844958, "lon": -138.31424431707046, "alt_km": 774.2959268704708, "timestamp": "2025-12-04T07:39:36.411607+00:00", "meta": {"OBJECT_NAME": "FENGYUN 1C DEB", "OBJECT_ID": "1999-025ADD", "EPOCH": "2025-12-03T19:20:09.704832", "MEAN_MOTION": 14.29585259, "ECCENTRICITY": 0.00681728, "INCLINATION": 98.8238, "RA_OF_ASC_NODE": 60.8966, "ARG_OF_PERICENTER": 190.0524, "MEAN_ANOMALY": 294.8057, "EPHEMERIS_TYPE": 0, "CLASSIFICATION_TYPE": "U", "NORAD_CAT_ID": 30390, "ELEMENT_SET_NO": 999, "REV_AT_EPOCH": 97256, "BSTAR": 0.003034345, "MEAN_MOTION_DOT": 7.925e-05, "MEAN_MOTION_DDOT": 0}, "tle": {"line1": "1 30390U 99025ADD 25337.80566788  .00007925  00000+0  30343-2 0  9995", "line2": "2 30390  98.8238  60.8966 0068172 190.0524 294.8057 14.29585259972569"}}, "geometry": {"type": "Point", "coordinates": [-138.31424431707046, -65.29248845844958]}}, {"type": "Feature", "properties": {"norad_id": 30391, "name": "FENGYUN 1C DEB", "group": "fengyun-1c-debris", "lat": -26.58355700496307, "lon": -159.99661149267075, "alt_km": 834.3246912982504, "timestamp": "2025-12-04T07:39:36.411616+00:00", "meta": {"OBJECT_NAME": "FENGYUN 1C DEB", "OBJECT_ID": "1999-025ADE", "EPOCH": "2025-12-03T02:09:14.851008", "MEAN_MOTION": 14.16166104, "ECCENTRICITY": 0.00710631, "INCLINATION": 98.782, "RA_OF_ASC_NODE": 23.2277, "ARG_OF_PERICENTER": 289.8875, "MEAN_ANOMALY": 133.4158, "EPHEMERIS_TYPE": 0, "CLASSIFICATION_TYPE": "U", "NORAD_CAT_ID": 30391, "ELEMENT_SET_NO": 999, "REV_AT_EPOCH": 96742, "BSTAR": 0.0014859257, "MEAN_MOTION_DOT": 2.969e-05, "MEAN_MOTION_DDOT": 0}, "tle": {"line1": "1 30391U 99025ADE 25337.08975522  .00002969  00000+0  14859-2 0  9993", "line2": "2 30391  98.7820  23.2277 0071063 289.8875 133.4158 14.16166104967422"}}, "geometry": {"type": "Point", "coordinates": [-159.99661149267075, -26.58355700496307]}}, {"type": "Feature", "properties": {"norad_id": 30392, "name": "FENGYUN 1C DEB", "group": "fengyun-1c-debris", "lat": 72.23754324484621, "lon": -153.99972574986847, "alt_km": 847.0683679760241, "timestamp": "2025-12-04T07:39:36.411626+00:00", "meta": {"OBJECT_NAME": "FENGYUN 1C DEB", "OBJECT_ID": "1999-025ADF", "EPOCH": "2025-12-03T21:29:46.055616", "MEAN_MOTION": 14.07418179, "ECCENTRICITY": 0.01814973, "INCLINATION": 98.7862, "RA_OF_ASC_NODE": 356.7203, "ARG_OF_PERICENTER": 21.8061, "MEAN_ANOMALY": 97.0369, "EPHEMERIS_TYPE": 0, "CLASSIFICATION_TYPE": "U", "NORAD_CAT_ID": 30392, "ELEMENT_SET_NO": 999, "REV_AT_EPOCH": 96546, "BSTAR": 0.0010499847, "MEAN_MOTION_DOT": 2.01e-05, "MEAN_MOTION_DDOT": 0}, "tle": {"line1": "1 30392U 99025ADF 25337.89567194  .00002010  00000+0  10500-2 0  9991", "line2": "2 30392  98.7862 356.7203 0181497  21.8061  97.0369 14.07418179965469"}}, "geometry": {"type": "Point", "coordinates": [-153.99972574986847, 72.23754324484621]}}, {"type": "Feature", "properties": {"norad_id": 30393, "name": "FENGYUN 1C DEB", "group": "fengyun-1c-debris", "lat": 80.56408823288102, "lon": -67.63484222519844, "alt_km": 939.5822192848236, "timestamp": "2025-12-04T07:39:36.411635+00:00", "meta": {"OBJECT_NAME": "FENGYUN 1C DEB", "OBJECT_ID": "1999-025ADG", "EPOCH": "2025-12-03T10:40:28.999776", "MEAN_MOTION": 13.98972451, "ECCENTRICITY": 0.00695788, "INCLINATION": 99.1649, "RA_OF_ASC_NODE": 35.2314, "ARG_OF_PERICENTER": 285.671, "MEAN_ANOMALY": 85.1033, "EPHEMERIS_TYPE": 0, "CLASSIFICATION_TYPE": "U", "NORAD_CAT_ID": 30393, "ELEMENT_SET_NO": 999, "REV_AT_EPOCH": 96200, "BSTAR": 0.00032073801, "MEAN_MOTION_DOT": 4.27e-06, "MEAN_MOTION_DDOT": 0}, "tle": {"line1": "1 30393U 99025ADG 25337.44478009  .00000427  00000+0  32074-3 0  9990", "line2": "2 30393  99.1649  35.2314 0069578 285.6710  85.1033 13.98972451962006"}}, "geometry": {"type": "Point", "coordinates": [-67.63484222519844, 80.56408823288102]}}, {"type": "Feature", "properties": {"norad_id": 30394, "name": "FENGYUN 1C DEB", "group": "fengyun-1c-debris", "lat": 20.674713270022192, "lon": -170.01933487458956, "alt_km": 854.3530891998462, "timestamp": "2025-12-04T07:39:36.411644+00:00", "meta": {"OBJECT_NAME": "FENGYUN 1C DEB", "OBJECT_ID": "1999-025ADH", "EPOCH": "2025-12-03T16:00:13.133952", "MEAN_MOTION": 13.95773945, "ECCENTRICITY": 0.00899326, "INCLINATION": 99.4356, "RA_OF_ASC_NODE": 5.7151, "ARG_OF_PERICENTER": 125.7941, "MEAN_ANOMALY": 356.374, "EPHEMERIS_TYPE": 0, "CLASSIFICATION_TYPE": "U", "NORAD_CAT_ID": 30394, "ELEMENT_SET_NO": 999, "REV_AT_EPOCH": 95977, "BSTAR": 0.0004471296, "MEAN_MOTION_DOT": 5.85e-06, "MEAN_MOTION_DDOT": 0}, "tle": {"line1": "1 30394U 99025ADH 25337.66681868  .00000585  00000+0  44713-3 0  9992", "line2": "2 30394  99.4356   5.7151 0089932 125.7941 356.3740 13.95773945959774"}}, "geometry": {"type": "Point", "coordinates": [-170.01933487458956, 20.674713270022192]}}]}